OBJECT_NAME,OBJECT_ID,EPOCH,MEAN_MOTION,ECCENTRICITY,INCLINATION,RA_OF_ASC_NODE,ARG_OF_PERICENTER,MEAN_ANOMALY,EPHEMERIS_TYPE,CLASSIFICATION_TYPE,NORAD_CAT_ID,ELEMENT_SET_NO,REV_AT_EPOCH,BSTAR,MEAN_MOTION_DOT,MEAN_MOTION_DDOT
GSAT0215 (GALILEO 19),2017-079A,2026-06-09T23:26:19.010688,1.70474602,.0003311,55.0750,221.7051,266.3689,93.6775,0,U,43055,999,5286,0,.49E-6,0
GSAT0216 (GALILEO 20),2017-079B,2026-06-10T06:25:34.900320,1.70474756,.00037016,55.0753,221.6973,276.7573,83.2861,0,U,43056,999,5288,0,.5E-6,0
GSAT0217 (GALILEO 21),2017-079C,2026-06-09T07:34:09.537888,1.70474233,.00038945,55.0739,221.7216,284.8595,75.1799,0,U,43057,999,5285,0,.46E-6,0
GSAT0218 (GALILEO 22),2017-079D,2026-06-11T07:05:06.742752,1.70474706,.00043805,55.0734,221.6644,272.9557,87.0844,0,U,43058,999,5291,0,.55E-6,0
BEIDOU-3 M7 (C27),2018-003A,2026-06-09T07:06:24.389568,1.86228375,.0004933,54.3360,302.5906,91.8835,268.1636,0,U,43107,999,5720,0,-.61E-6,0
BEIDOU-3 M8 (C28),2018-003B,2026-06-09T18:40:15.561696,1.86231266,.00024353,54.3283,302.5556,266.0662,93.8955,0,U,43108,999,5722,0,-.62E-6,0
BEIDOU-3 M4 (C22),2018-018A,2026-06-09T03:31:38.545824,1.86231351,.00076882,56.6431,63.4146,17.0743,342.9760,0,U,43207,999,5659,0,-.46E-6,0
BEIDOU-3 M3 (C21),2018-018B,2026-06-08T03:20:55.965696,1.86231220,.00088128,56.6424,63.4518,338.8483,21.1416,0,U,43208,999,5657,0,-.42E-6,0
BEIDOU-3 M9 (C29),2018-029A,2026-06-10T12:07:24.300768,1.86228273,.00008622,54.2010,300.1836,145.8498,214.1437,0,U,43245,999,5577,0,-.64E-6,0
BEIDOU-3 M10 (C30),2018-029B,2026-06-10T23:26:08.666880,1.86229415,.00039854,54.1977,300.1930,38.6897,321.3255,0,U,43246,999,5576,0,-.65E-6,0
IRNSS-1I,2018-035A,2026-06-10T23:58:16.872960,1.00270739,.00178781,28.7398,74.2932,181.9830,57.5112,0,U,43286,999,3001,0,.84E-6,0
COSMOS 2527 (756),2018-053A,2026-06-10T23:37:19.080768,2.13102302,.00073927,65.5740,74.1146,241.2390,118.7028,0,U,43508,999,6214,0,-.28E-6,0
BEIDOU-2 IGSO-7 (C16),2018-057A,2026-06-10T23:53:30.375744,1.00253023,.01048473,55.1937,163.1120,237.9272,327.1184,0,U,43539,999,2906,0,.4E-6,0
GSAT0221 (GALILEO 25),2018-060A,2026-06-10T14:42:06.878304,1.70475913,.00026784,57.1738,341.9578,307.2326,52.7584,0,U,43564,999,4905,0,-.63E-6,0
GSAT0222 (GALILEO 26),2018-060B,2026-06-10T19:58:24.296160,1.70475642,.00019097,57.1762,341.9557,252.3571,107.6372,0,U,43565,999,4910,0,-.64E-6,0
GSAT0219 (GALILEO 23),2018-060C,2026-06-10T11:11:49.199424,1.70475904,.00021959,57.1743,341.9669,328.4405,31.5620,0,U,43566,999,4907,0,-.63E-6,0
GSAT0220 (GALILEO 24),2018-060D,2026-06-08T08:11:18.198240,1.70475807,.00022536,57.1759,342.0253,317.6959,42.3025,0,U,43567,999,4902,0,-.62E-6,0
BEIDOU-3 M5 (C23),2018-062A,2026-06-10T15:55:40.299168,1.86228752,.00055618,54.0849,182.5259,288.0289,71.9736,0,U,43581,999,5351,0,.127E-5,0
BEIDOU-3 M6 (C24),2018-062B,2026-06-11T01:32:14.993088,1.86227819,.00047938,54.0847,182.5015,9.6961,350.3769,0,U,43582,999,5352,0,.128E-5,0
BEIDOU-3 M12 (C26),2018-067A,2026-06-11T00:03:32.776416,1.86227936,.00077159,54.1799,181.2502,30.0385,330.0674,0,U,43602,999,5300,0,.129E-5,0
BEIDOU-3 M11 (C25),2018-067B,2026-06-11T03:18:00.817344,1.86227390,.00044699,54.1774,181.2091,14.3139,345.7605,0,U,43603,999,5303,0,.129E-5,0
BEIDOU-3 M13 (C32),2018-072A,2026-06-10T00:26:33.876960,1.86231542,.00074929,56.6185,62.8963,327.3445,32.6329,0,U,43622,999,5252,0,-.5E-6,0
BEIDOU-3 M14 (C33),2018-072B,2026-06-10T22:59:13.252992,1.86231499,.00061619,56.6207,62.8602,357.5003,2.5196,0,U,43623,999,5253,0,-.53E-6,0
BEIDOU-3 M16 (C35),2018-078A,2026-06-08T10:17:01.510944,1.86232291,.00073342,54.0984,300.2932,40.8019,319.2453,0,U,43647,999,5199,0,-.58E-6,0
BEIDOU-3 M15 (C34),2018-078B,2026-06-09T02:16:24.406752,1.86232356,.000433,54.0936,300.2703,57.2099,302.8231,0,U,43648,999,5202,0,-.6E-6,0
BEIDOU-3 G1 (C59),2018-085A,2026-06-11T05:27:01.912608,1.00271074,.00083128,2.8519,97.5522,348.1793,55.5793,0,U,43683,999,2800,0,-.92E-6,0
COSMOS 2529 (757),2018-086A,2026-06-11T01:56:22.833312,2.13102175,.00117747,64.2944,192.8006,256.0467,103.8983,0,U,43687,999,5915,0,.119E-5,0
BEIDOU-3 M17 (C36),2018-093A,2026-06-10T11:08:16.160352,1.86228347,.00100759,54.1687,182.5246,291.4418,158.4113,0,U,43706,999,5141,0,.127E-5,0
BEIDOU-3 M18 (C37),2018-093B,2026-06-10T04:38:24.710784,1.86226713,.00079081,54.1693,182.5258,320.0907,39.9133,0,U,43707,999,5140,0,.126E-5,0
GPS BIII-1  (PRN 04),2018-109A,2026-06-11T01:08:30.640704,2.00561297,.00381851,55.6781,92.4295,198.0641,172.6351,0,U,43873,999,5495,0,-.8E-7,0
BEIDOU-3 IGSO-1 (C38),2019-023A,2026-06-06T22:54:10.040832,1.00294886,.00254341,58.6799,37.7569,225.6649,92.8731,0,U,44204,999,710,0,-.215E-5,0
